FENGYUN 3D              
1 43010U 17072A   26168.49973425 -.00000049  00000+0 -14822-5 0  9997
2 43010  99.0123 142.9279 0002574  61.8292 298.3143 14.19738746445030
NOAA 20 (JPSS-1)        
1 43013U 17073A   26168.49473894  .00000044  00000+0  41946-4 0  9995
2 43013  98.7771 107.9546 0000295  98.8637 261.2573 14.19511759444518
GOES 17                 
1 43226U 18022A   26167.95229309 -.00000186  00000+0  00000+0 0  9995
2 43226   0.9372  85.7144 0000424  32.6375  40.1765  1.00269717 30420
SENTINEL-3B             
1 43437U 18039A   26168.11957811  .00000086  00000+0  53558-4 0  9991
2 43437  98.6249 235.6528 0000727  88.7815 271.3448 14.26734700424110
FENGYUN 2H              
1 43491U 18050A   26167.77186332 -.00000134  00000+0  00000+0 0  9991
2 43491   3.0297  79.0759 0001983 138.6061  44.6323  1.00269582 29430
METOP-C                 
1 43689U 18087A   26168.49037154  .00000087  00000+0  59473-4 0  9996
2 43689  98.6645 228.0885 0001778 129.0834 231.0501 14.21512218394873
GEO-KOMPSAT-2A          
1 43823U 18100A   26167.63900156 -.00000346  00000+0  00000+0 0  9994
2 43823   0.0523 115.8368 0001803 330.9204 176.4552  1.00270764 27621
METEOR-M2 2             
1 44387U 19038A   26168.52565713  .00000146  00000+0  83012-4 0  9992
2 44387  98.9139 155.8163 0002073  47.1284 313.0068 14.24366238361341
ARKTIKA-M 1             
1 47719U 21016A   26168.49069990 -.00000210  00000+0  00000+0 0  9999
2 47719  63.2922  57.5948 7288529 269.9420  14.6012  2.00622504 38797
FENGYUN 3E              
1 49008U 21062A   26168.48356350  .00000486  00000+0  24965-3 0  9995
2 49008  98.7485 171.8884 0002828  85.5199 274.6301 14.19906079256628
GOES 18                 
1 51850U 22021A   26168.36966595  .00000092  00000+0  00000+0 0  9997
2 51850   0.0415 150.2646 0000306   5.8170 105.6135  1.00270788  6599
NOAA 21 (JPSS-2)        
1 54234U 22150A   26168.45714535  .00000030  00000+0  34654-4 0  9993
2 54234  98.7059 107.2418 0001679 153.2593 206.8670 14.19565472186583
METEOSAT-12 (MTG-I1)    
1 54743U 22170C   26167.82736456 -.00000011  00000+0  00000+0 0  9999
2 54743   0.7382  22.9365 0003158  71.4337 108.1588  1.00272521 12974
TIANMU-1 03             
1 55973U 23039A   26168.50287748  .00012228  00000+0  24153-3 0  9992
2 55973  97.5232 342.4838 0004209  97.9385 262.2342 15.47292028180883
TIANMU-1 04             
1 55974U 23039B   26168.49223215  .00012473  00000+0  24127-3 0  9993
2 55974  97.5167 341.6265 0004871  95.1931 264.9875 15.47890132180899
TIANMU-1 05             
1 55975U 23039C   26168.48365563  .00012101  00000+0  23964-3 0  9992
2 55975  97.5214 342.0785 0003993 114.4233 245.7433 15.47218922180864
TIANMU-1 06             
1 55976U 23039D   26168.49562956  .00012304  00000+0  23883-3 0  9994
2 55976  97.5220 342.7272 0004393 110.0213 250.1510 15.47794103180894
FENGYUN 3G              
1 56232U 23055A   26168.55698370  .00020080  00000+0  32602-3 0  9994
2 56232  49.9936 344.1155 0007014 297.8309  62.1947 15.52643162180062
METEOR-M2 3             
1 57166U 23091A   26168.52004544  .00000004  00000+0  20549-4 0  9994
2 57166  98.6090 223.4916 0004378 154.4769 205.6627 14.24046830154565
TIANMU-1 07             
1 57399U 23101A   26168.49259486  .00004972  00000+0  17475-3 0  9998
2 57399  97.2588 219.1540 0004117 120.9054 239.2592 15.29810748161690
TIANMU-1 08             
1 57400U 23101B   26168.52464572  .00004919  00000+0  17288-3 0  9992
2 57400  97.2576 218.9559 0005590 114.3929 245.7896 15.29815627161691
TIANMU-1 09             
1 57401U 23101C   26168.50805365  .00005002  00000+0  17558-3 0  9994
2 57401  97.2534 218.3552 0004604 126.1071 234.0597 15.29846630161694
TIANMU-1 10             
1 57402U 23101D   26168.54111086  .00005020  00000+0  17632-3 0  9992
2 57402  97.2614 219.4384 0006187 125.3154 234.8666 15.29818286161691
FENGYUN 3F              
1 57490U 23111A   26168.46747557  .00000031  00000+0  35196-4 0  9992
2 57490  98.6836 238.4710 0001594  93.3821 266.7538 14.19939126148901
ARKTIKA-M 2             
1 58584U 23198A   26160.78386103  .00000212  00000+0  00000+0 0  9997
2 58584  63.2205 155.1874 6900401 267.4353  18.7899  2.00606537 18179
TIANMU-1 11             
1 58645U 23205A   26168.51221484  .00004277  00000+0  16403-3 0  9996
2 58645  97.3441 190.0640 0008896  16.0363 344.1156 15.26998556137571
TIANMU-1 12             
1 58646U 23205B   26168.48258757  .00004590  00000+0  17610-3 0  9995
2 58646  97.3430 189.7905 0006685   2.8013 357.3262 15.26963178137552
TIANMU-1 13             
1 58647U 23205C   26168.51479696  .00004354  00000+0  16792-3 0  9995
2 58647  97.3457 190.0949 0005862 340.1303  19.9706 15.26816578137556
TIANMU-1 14             
1 58648U 23205D   26168.49999382  .00004342  00000+0  16723-3 0  9993
2 58648  97.3393 189.2618 0006829 344.3688  15.7339 15.26861171137550
TIANMU-1 19             
1 58660U 23208A   26168.48297076  .00006500  00000+0  21573-3 0  9997
2 58660  97.4511 284.7839 0003794 327.1076  32.9928 15.31577502137374
TIANMU-1 20             
1 58661U 23208B   26168.52053638  .00006590  00000+0  21067-3 0  9994
2 58661  97.4452 285.4573 0005990 332.5689  27.5236 15.32768778137473
