OBJECT_NAME,OBJECT_ID,EPOCH,MEAN_MOTION,ECCENTRICITY,INCLINATION,RA_OF_ASC_NODE,ARG_OF_PERICENTER,MEAN_ANOMALY,EPHEMERIS_TYPE,CLASSIFICATION_TYPE,NORAD_CAT_ID,ELEMENT_SET_NO,REV_AT_EPOCH,BSTAR,MEAN_MOTION_DOT,MEAN_MOTION_DDOT
FENGYUN 3D,2017-072A,2026-06-17T11:59:37.039200,14.19738746,.0002574,99.0123,142.9279,61.8292,298.3143,0,U,43010,999,44503,-.14822E-5,-.49E-6,0
NOAA 20 (JPSS-1),2017-073A,2026-06-17T11:52:25.444416,14.19511759,.0000295,98.7771,107.9546,98.8637,261.2573,0,U,43013,999,44451,.41946E-4,.44E-6,0
GOES 17,2018-022A,2026-06-16T22:51:18.122976,1.00269717,.0000424,0.9372,85.7144,32.6375,40.1765,0,U,43226,999,3042,0,-.186E-5,0
SENTINEL-3B,2018-039A,2026-06-17T02:52:11.548704,14.26734700,.0000727,98.6249,235.6528,88.7815,271.3448,0,U,43437,999,42411,.53558E-4,.86E-6,0
FENGYUN 2H,2018-050A,2026-06-16T18:31:28.990848,1.00269582,.0001983,3.0297,79.0759,138.6061,44.6323,0,U,43491,999,2943,0,-.134E-5,0
METOP-C,2018-087A,2026-06-17T11:46:08.101056,14.21512218,.0001778,98.6645,228.0885,129.0834,231.0501,0,U,43689,999,39487,.59473E-4,.87E-6,0
GEO-KOMPSAT-2A,2018-100A,2026-06-16T15:20:09.734784,1.00270764,.0001803,0.0523,115.8368,330.9204,176.4552,0,U,43823,999,2762,0,-.346E-5,0
METEOR-M2 2,2019-038A,2026-06-17T12:36:56.776032,14.24366238,.0002073,98.9139,155.8163,47.1284,313.0068,0,U,44387,999,36134,.83012E-4,.146E-5,0
ARKTIKA-M 1,2021-016A,2026-06-17T11:46:36.471360,2.00622504,.7288529,63.2922,57.5948,269.9420,14.6012,0,U,47719,999,3879,0,-.21E-5,0
FENGYUN 3E,2021-062A,2026-06-17T11:36:19.886400,14.19906079,.0002828,98.7485,171.8884,85.5199,274.6301,0,U,49008,999,25662,.24965E-3,.486E-5,0
GOES 18,2022-021A,2026-06-17T08:52:19.138080,1.00270788,.0000306,0.0415,150.2646,5.8170,105.6135,0,U,51850,999,659,0,.92E-6,0
NOAA 21 (JPSS-2),2022-150A,2026-06-17T10:58:17.358240,14.19565472,.0001679,98.7059,107.2418,153.2593,206.8670,0,U,54234,999,18658,.34654E-4,.3E-6,0
METEOSAT-12 (MTG-I1),2022-170C,2026-06-16T19:51:24.297984,1.00272521,.0003158,0.7382,22.9365,71.4337,108.1588,0,U,54743,999,1297,0,-.11E-6,0
TIANMU-1 03,2023-039A,2026-06-17T12:04:08.614272,15.47292028,.0004209,97.5232,342.4838,97.9385,262.2342,0,U,55973,999,18088,.24153E-3,.12228E-3,0
TIANMU-1 04,2023-039B,2026-06-17T11:48:48.857760,15.47890132,.0004871,97.5167,341.6265,95.1931,264.9875,0,U,55974,999,18089,.24127E-3,.12473E-3,0
TIANMU-1 05,2023-039C,2026-06-17T11:36:27.846432,15.47218922,.0003993,97.5214,342.0785,114.4233,245.7433,0,U,55975,999,18086,.23964E-3,.12101E-3,0
TIANMU-1 06,2023-039D,2026-06-17T11:53:42.393984,15.47794103,.0004393,97.5220,342.7272,110.0213,250.1510,0,U,55976,999,18089,.23883E-3,.12304E-3,0
FENGYUN 3G,2023-055A,2026-06-17T13:22:03.391680,15.52643162,.0007014,49.9936,344.1155,297.8309,62.1947,0,U,56232,999,18006,.32602E-3,.2008E-3,0
METEOR-M2 3,2023-091A,2026-06-17T12:28:51.926016,14.24046830,.0004378,98.6090,223.4916,154.4769,205.6627,0,U,57166,999,15456,.20549E-4,.4E-7,0
TIANMU-1 07,2023-101A,2026-06-17T11:49:20.195904,15.29810748,.0004117,97.2588,219.1540,120.9054,239.2592,0,U,57399,999,16169,.17475E-3,.4972E-4,0
TIANMU-1 08,2023-101B,2026-06-17T12:35:29.390208,15.29815627,.000559,97.2576,218.9559,114.3929,245.7896,0,U,57400,999,16169,.17288E-3,.4919E-4,0
TIANMU-1 09,2023-101C,2026-06-17T12:11:35.835360,15.29846630,.0004604,97.2534,218.3552,126.1071,234.0597,0,U,57401,999,16169,.17558E-3,.5002E-4,0
TIANMU-1 10,2023-101D,2026-06-17T12:59:11.978304,15.29818286,.0006187,97.2614,219.4384,125.3154,234.8666,0,U,57402,999,16169,.17632E-3,.502E-4,0
FENGYUN 3F,2023-111A,2026-06-17T11:13:09.889248,14.19939126,.0001594,98.6836,238.4710,93.3821,266.7538,0,U,57490,999,14890,.35196E-4,.31E-6,0
ARKTIKA-M 2,2023-198A,2026-06-09T18:48:45.592992,2.00606537,.69004015,63.2205,155.1874,267.4353,18.7899,0,U,58584,999,1817,0,.212E-5,0
TIANMU-1 11,2023-205A,2026-06-17T12:17:35.362176,15.26998556,.0008896,97.3441,190.0640,16.0363,344.1156,0,U,58645,999,13757,.16403E-3,.4277E-4,0
TIANMU-1 12,2023-205B,2026-06-17T11:34:55.566048,15.26963178,.0006685,97.3430,189.7905,2.8013,357.3262,0,U,58646,999,13755,.1761E-3,.459E-4,0
TIANMU-1 13,2023-205C,2026-06-17T12:21:18.457344,15.26816578,.0005862,97.3457,190.0949,340.1303,19.9706,0,U,58647,999,13755,.16792E-3,.4354E-4,0
TIANMU-1 14,2023-205D,2026-06-17T11:59:59.466048,15.26861171,.0006829,97.3393,189.2618,344.3688,15.7339,0,U,58648,999,13755,.16723E-3,.4342E-4,0
TIANMU-1 19,2023-208A,2026-06-17T11:35:28.673664,15.31577502,.0003794,97.4511,284.7839,327.1076,32.9928,0,U,58660,999,13737,.21573E-3,.65E-4,0
TIANMU-1 20,2023-208B,2026-06-17T12:29:34.343232,15.32768778,.000599,97.4452,285.4573,332.5689,27.5236,0,U,58661,999,13747,.21067E-3,.659E-4,0
